[{"OBJECT_NAME":"STARLINK-1422","OBJECT_ID":"2020-035AR","EPOCH":"2026-03-09T07:37:25.169952","MEAN_MOTION":15.30216632,"ECCENTRICITY":0.00012482,"INCLINATION":53.1601,"RA_OF_ASC_NODE":51.3097,"ARG_OF_PERICENTER":97.1676,"MEAN_ANOMALY":262.9467,"EPHEMERIS_TYPE":0,"CLASSIFICATION_TYPE":"U","NORAD_CAT_ID":45696,"ELEMENT_SET_NO":999,"REV_AT_EPOCH":31891,"BSTAR":0.00022631419,"MEAN_MOTION_DOT":6.353e-5,"MEAN_MOTION_DDOT":0},{"OBJECT_NAME":"SIMSAT 2","OBJECT_ID":"2000-026B","EPOCH":"2026-03-09T20:25:01.673184","MEAN_MOTION":15.29036787,"ECCENTRICITY":0.00037035,"INCLINATION":86.3514,"RA_OF_ASC_NODE":176.4271,"ARG_OF_PERICENTER":287.9875,"MEAN_ANOMALY":72.0969,"EPHEMERIS_TYPE":0,"CLASSIFICATION_TYPE":"U","NORAD_CAT_ID":26366,"ELEMENT_SET_NO":999,"REV_AT_EPOCH":42803,"BSTAR":0.00013465771,"MEAN_MOTION_DOT":3.833e-5,"MEAN_MOTION_DDOT":0}]
